country,name,address,sector,lat,lng
PK,BOX RING,"MAQBOOL ROAD ,NOAL MORE OPP WAZIRABAD ROAD, Sialkot, 51310, Punjab",Apparel,32.4998681,74.4937034
ES,"Industrias Químicas Perlacos, S.L.","c/ Berlin, 33 - Pol. Ind., Torres de la Alameda, 28813, Madrid",Apparel,40.4054714,-3.3615643
CN,"Jiangsu Feilong Plastic Co., Ltd ","NO.158 HUBIN SOUTH ROAD ,LUJIAXIANG, NIUTANG TOWN, WUJIN DISTRICT, ChangZhou, 213168, Jiangsu",Apparel,31.69992,119.90076
CZ,A.Schmied s.r.o.,"Husova 560, PO-Box 42, Trhove Sviny, 37401, Jihocesky",Apparel,48.8423175,14.6392384
JP,Daitatsu Co Ltd,"111, Gohmae, Ojima-Cho, Nishio, 445-0006, Aichi",Apparel,34.8844587,137.091156
PR,Protego,"147 Comercio Avenue, Hatillo, 659, Hatillo",Apparel,18.4863331,-66.82545449999999
EG,FUTURE FASHION,"92 A-1st industrial Zone, (Free Zone), Giza, 12581, 6th of October",Apparel,29.92702379999999,30.8843434
CN,"ZhuJi HuaLiDa Knitting and Textile Co., Ltd.","Chuntang West Village,, Caota Town,, Zhuji City, 311812, Zhejiang",Apparel,29.68331,120.13855
GT,Mata Textiles S.A.,"KM 16.5 Carretera A San Juan Scatepequez, Parque Industrial Mixco Norte Lote C10-11 , Mixco, 1006, Guatemala",Apparel,14.6702376,-90.6170987
CN,"Shanghai Qianrun Garments Co., Ltd","No.233, Lane1888, Daye Road,, WuQiao Industrial Zone,, FengXian District,, Shanghai, 201402, Shanghai Shi",Apparel,30.9574299,121.39279
SV,Textiles Opico SA de CV,"KM 31.4 Carretera a Santa Ana, San Juan Opico, 1101, La Libertad",Apparel,13.8758656,-89.3582599
VN,"PHI Co., Ltd.","No. 10, Dai An Industrial Zone, Tu Minh , Hai Duong, 17000, Hai Duong",Apparel,20.9335662,106.2687817
CN,Regina Miracle Intimate Apparel (Shenzhen) Ltd.,"No.5 Cengyao Industrial Estate Yulu, Gongming Baoan ,Shenzhen,Guangdong, P.R.China , Gongming Yulu, Bao'an District, Shenzhen, 518132, Guangdong",Apparel,22.7265199,113.90445
CN,"Shanghai Weijie Garment Co., Ltd.","No. of 1228, Huiping Road,, Nanxiang Town, Jiading District, Shanghai, 201802, Shanghai",Apparel,31.29412,121.32027
CN,ZHUCHENG HENGWEI CLOTHING CO.LTD,"Southern head of east ourter ring, Shandong Province, Zhucheng City, 262200, Shandong",Apparel,36.62517,119.21849
ID,PT. Kanindo Makmur Jaya,"Jl. Raya Jepara Kudus KM 19,, Ds. Pendosawalan,, Kecamatan Kalinyamatan, Kabupaten Jepara, 59462, Jawa Tengah",Apparel,-6.732359,110.7302234
CN,"Kunshan Gea-Reach Garments Co., Ltd.","No.577 Jiguang North Road, Shipu Qiandeng Town, Kunshan, 215343, Jiangsu",Apparel,31.268048,121.004053
CN,MOLTEN SPORTS (SIHONG) CORPORATION,"28 Hongyuan Road , Sihong Economic Development Zone, Suqian, 223900, Jiangsu",Apparel,33.4723445,118.1970359
CA,CYC Manufacturing,"68 East 1st Ave, Vancouver, V5T 1A1, British Columbia",Apparel,49.2699355,-123.1035553
CN,CHANGSHU KINSEI FASHION CO LTD,"No.1 MEIBEI RD, MEILI TOWN,, CHANGSHU, 215511, Jiangsu",Apparel,31.7157,120.86374
CN,FOSHAN SHUNDE STRATEGIC GARMENT LTD,"Chencun Industrial Park, Shun De, Fo Shan, 528313, Guangdong",Apparel,22.954662,113.23488
MX,"Forta Lab, S.A. de C.V.","Av. Central 206, Manzana 2, Parque Industrial Toluca 2000, Toluca, 50233, Toluca",Apparel,19.3833135,-99.5791878
CN,Qingdao Kiyomoto Suhlim Bags Co Ltd,"Dongjie Village, Lingshanwei Town, Jiaonan City, Qingdao, 266427, Shandong",Apparel,35.932361,120.145521
CN,Rich Policy (Zheng Yang Sporting Goods Co Ltd),"NO.1 Hou Dao Road East, San Tun Industrial park, HouJie Town, Dongguan, 523941, Guangdong",Apparel,22.936585,113.67114
CN,"Shanghai Songjiang ACE luggage Co.,Ltd","2589Shebei Road, Sheshan Town, Songjiang District, Shanghai, 201602, Shanghai Shi",Apparel,31.094914,121.175027
CN,"SHISHI  HENGCHANG  SPORTS  GOODS  TRADE  CO.,LTD","ZONGSAN   INDUSTRIAL   AREA,, GANGBIAN,YONGNING TOWN,, SHISHI CITY,, Quanzhou, 362700, Fujian",Apparel,24.58951,118.11736
CN,Universe Ind & Development (ShenZhen) Co Ltd,"446, Songbai Road, Gongming Street, Guangming New District, Shenzhen,  518106, Guangdong",Apparel,22.7368,113.90665
CN,Yancheng Charlotte Socks Co. Ltd,"NO. 188 YINGBIN AVENUE, XIANGSHUI CITY, Yancheng, 224600, Jiangsu",Apparel,34.176872,119.620507
CN,ZHANGJIAGANG DONGDU TEO GARMENT CO. LTD. (NEW),"NO.638 JINGANG DA DAO, ZHANGJIAGANG CITY, 215600, Jiangsu",Apparel,31.82567,120.5463
US,Boathouse,"425 E. Hunting Park Avenue, Philadelphia, Philadelphia, 19124, Pennsylvania",Apparel,40.0143982,-75.1181362
CN,Zhejiang Wenti Socks Co Ltd,"No. 28 Zhisheng Rd, CaoTa County, Zhuji, 311812, Zhejiang",Apparel,29.68904,120.13647
CN,"Zhuji Quanneng Knitting Co., Ltd.","NO22 Tianyuan Rd Lingshui Caota, Zhuji, 311812, Zhejiang",Apparel,29.6838479,120.1352806
EG,ELITE MERCHANDISING CORP.,"St. 8, El-Amrya Public Free Zone, Alexandria, 23512, Iskandariyah",Apparel,31.2000924,29.9187387
DE,Zellaerosol GmbH,"Wiesenstrasse 13, Zell im Wiesental, 79669, Baden-Wuerttemberg",Apparel,47.704399,7.848046900000001
TW,Canmes Sport Co Ltd,"No 565, Jhongshan Rd., Baihe District, Tainan , 73258, Taiwan",Apparel,23.3594879,120.4223857
ID,PT Semarang Garment,"Jl. Soekarno - Hatta KM. 25, Kelurahan Wujil, Kecamatan Bergas, Kabupaten Semarang, 50552, Jawa Tengah",Apparel,-7.1743744,110.4166147
IT,Alialux Srl,"Via Napoli 42, Angera, 21021, Lombardia",Apparel,45.775624,8.606891100000002
JP,"Mitsubishi Pencil Co.,Ltd. Gunma Factory","1091, Tateishi, Fujioka, 375-8051, Gunma",Apparel,36.2724401,139.0796809
TW,"Jiuh Shin Co., LTD","40-19, Bo Kon Kun, Shi-Fu Village, Shan Yih Hsiang, Miaoli Hsien, 36744, Taiwan",Apparel,24.5631665,120.8185385
MC,COTY Monaco,"6 Avenue Prince Albert II, Monaco, 98000, ",Apparel,43.7336539,7.424615799999999
PK,Capital Sports Corporation (PVT) Ltd,"Capital Sports Corporation (PVT) Ltd, Kashmir Road, Pacca Garha, Sialkot, 51310, Punjab",Apparel,32.5038192,74.5060659
PK,"Multi Sports Textile Pvt., Ltd.","29, K.M G.T Road Muridke, Muridke, 39000, Punjab",Apparel,31.7765915,74.2583791
PL,Multi Packaging Solutions Tczew SP. Z.o.o.,"ul. Malinowska 43, Tczew, 83-100, Pomorskie",Apparel,54.113147,18.795305
LK,Hirdaramani Garments Katunayake (pvt) Ltd (Cutting),"Ring Road 01, Export Process Zone, Katunayake, 112, Western",Apparel,7.170921000000001,79.8898816
TW,Everstrong Spring Industry Co Ltd,"No 45, Sec 4, Fu San Road, Fu Hsing Township, Changhua County, Chang Hua Hsien, 50602, ",Apparel,24.0211702,120.4247325
TW,"MING HSING LEATHER CO., LTD.","403, Sec. 2, SHA-TIEN ROAD, TA-TU, TAICHUNG, TAIWAN, Taichung, 43242, Taiwan",Apparel,24.2176429,120.5534113
TW,Torng Yaw Co. Ltd.,"No. 49, Alley 3, Lane 217, Chung Cheng Road, Yung Kang District, Tainan City, 71043, Taiwan",Apparel,22.9975808,120.2051911
TH,"Thai Daizo Aerosol Co.,Ltd.","700/372 Moo 6, Tambol Nongmaidaeng, Amphur Muang, 20000, Chon Buri",Apparel,12.938544,100.9048957
US,1v1 Fight Gear,"5320 Tower Way, Sanford, 32773, Florida",Apparel,28.7313374,-81.3044164
VN,"An Phat Invest Joint Stock Company -  Zone A ( Unit  2, 3, 4)","Tam Quan Industrial Park, Tam Quan Town, Hoai Nhon District, Quy Nhon, 820000, Binh Dinh",Apparel,14.5532988,109.0423479
VN,"FORMOSA (VIETNAM) TEXTILE INDUSTRY CO., LTD","MY XUAN A2 INDUSTRIAL ZONE, TAN THANH DISTRICT, BA RIA VUN TAU PROVINCE, BA RIA  VUNG TAU, 790000, Ba Ria-Vung Tau",Apparel,10.337224,107.0893711
VN,PUNGKOOK SAIGON III Co Ltd,"1A QUARTER, AN PHU WARD,, Thuan An Town, Binh Duong, 820000, Binh Duong",Apparel,16.3938508,107.5691555
VN,"Yegin Industrial (Vietnam) Co., Ltd.","Lot 36A,37A, Long Giang Industrial Park, Tan Lap 1 Commune, Tan Phuoc District, Tien Giang Province, Tan Phuoc District, Tien Giang",Apparel,10.4758352,106.3047566
CN,JIANGXI NEW STAR ENTERPRISE CO LTD.,"Wanxin Management Area, Pingxiang Economic Development Zone, Pingxiang, 337000, Jiangxi",Apparel,27.6409844,113.8704303
TW,Sunever Eyewear Co LTD,"42, Lane 220, SEC.2 Gongxue RD., Annan District, Tainan City, 70947, ",Apparel,23.0686257,120.1947103
CN,LF Beauty Manufacturing China,"No.1, Street 5, Jinhe Industrial District, Yu Feng Village, Zhangmutou Town, Dong Guan, 523627, Guangdong",Apparel,22.54181,113.97327
CN,Liaoyuan Northeast Socks Business Group Ltd,"Northeast hosiery park ,Liaoyuan Economic Development Zone ,Liaoyuan , Jilin, Liaoyuan, 136200, Jilin",Apparel,42.917641,125.040472
AT,MONTFORT Kunststofftechnik GmbH,"Bundesstraße 15, Koblach, 6842, ",Apparel,47.3239416,9.6282286
KH,Yorks (Cambodia) Co Ltd,"National Road No.1, Tai Seng SEZ, Sangkat Bavet, Bavet, N/A, Svay Rieng",Apparel,11.0603031,106.1132461
MX,"Laboratorios Aerosol, S.A. de C.V.","Calle Transformación, Parque Industrial PYME Capulhuac,, Localidad Agua Blanca, Km 9.5 Carretera Ocoyoacac, Santiago Tiangusitenco, Municipio de Capulhuac, 52700, Mexico",Apparel,19.216999,-99.46586459999999
CN,"DADA WUXI Accessories Co.,Ltd","No.33,Deng Street,Hongdon Village,Gushan Town, Jiangyin, 214400, Jiangsu",Apparel,31.73343,120.555956
CN,Dongguan Bin Bin Fashion Co Ltd,"49 ZhongXing Road, Renzhonggang Industrial Zone, BeiZha, Hu Men Town, Dongguan, 523000, Guangdong",Apparel,22.91898,113.84041
CN,"Fujian Jinjiang Shenhu Dali Clothing And Knitting Co,.Ltd","Dong An, Shenhu Town, Jinjiang City, 362246, Fujian",Apparel,24.61534,118.67529
CN,Guangzhou Panyu Dong Chong Chong Ming Glove Factory,"No. 43-5, Ji Xiang Wei Nan Street,, Dong Chong Town, Nansha District, Guangzhou, 511453, Guangdong",Apparel,22.88603,113.4557
CN,Hengdian Lucheng Knitting Garment Factory,"No.9, Changsheng Road, Hengdian Town, Dongyang City, 322118, 1, 322118, Zhejiang",Apparel,29.1476,120.28303
CN,"NingBo AiQiOu Garment Co., Ltd.","No. 111 XiaoGao West Road, XinXing Industrial Park , ShouNan Street , Ningbo, 315194, Zhejiang",Apparel,29.79759,121.517
CN,"Ningbo Sunful Travelling Goods Co,Ltd","No 46 Hongxiang Rd, Hongtang Industrial Zone A, Jiangbei District, Ningbo, 315033, Zhejiang",Apparel,29.9425743,121.5159936
CN,QINGDAO XINZHOU SPORT PRODUCTS CO LTD,"HONGSHIYA TOWN, HUANGDAO DISTRICT, Qingdao, 266000, Shandong",Apparel,36.09634,120.1135
CN,"Shanghai Nikki Fashion Co., Ltd.","189 Beidou Road, Minhang Economic & Technological Developement Zone, Shanghai, 200245, Shanghai",Apparel,31.0087306,121.3773008
CN,SHENYANG DASON SEWING Co. Ltd.,"Xiahewan Village, Hunezhan Town, Dongling District, SHENYANG, 110101, Liaoning",Apparel,41.677085,123.3421516
CN,"SHISHI YAOTIAN SPORTS GOODS. CO.,LTD.","THE THIRD INDUSTRIAL ZONE YONGNING TOWN, SHISHI , FUJIAN P.R. CHINA, SHISHI, 362700, Fujian",Apparel,24.7396699,118.67398
CN,"SUZHOU  HAOLILAI GARMENT CO.,LTD","NO.5-1, YOU XIANG ROAD, WUZHONG DISTRICT, SUZHOU, 215104, Jiangsu",Apparel,31.187138,120.594817
CN,Xiamen Kingland Apparel Co Ltd,"2F, J5 Building, Yongquan Industrial Area, Guankou, Jimei, Xiamen, 361023, Fujian",Apparel,24.61988,117.99864
CN,Xuancheng Naier Socks Co. Ltd,"Huangdu Road, Xuanzhou District, Xuancheng, 242000, Anhui",Apparel,30.79227,118.8517
CN,Yiwu HongGuang Knitting Co. Ltd,"No. 16 Workshop, Langsha Industrial Zone, Yangcun Rd, Economic Development Area, Yiwu, 322000, Zhejiang",Apparel,29.29095,120.03409
RO,East Coast,"STR Timisorii NR 143-147, Lugoj, 305500, Timis",Apparel,45.7047623,21.8889346
CN,"ZHEJIANG OUTLOOK OPTICAL MANUFACTORY CO., LTD.","No. 12 Shengye Road,, LuCheng Light Industry Specialized Zone, Wenzhou, 325019, Zhejiang",Apparel,28.087165,120.5529608
IN,JVS SPORTING GOODS,"B-9, Sports Goods Complex , Delhi Road, Meerut, 250001, Uttar Pradesh",Apparel,28.926303,77.65603399999999
ID,PT Gistex,"Jl Raya Bandung Cirebon Desa Sinarjati, RT 01 RW01, Dawuan, Majalengka, 45453, Jawa Barat",Apparel,-6.7477942,108.2126709
ID,PT Taitat Putra Rejeki,"JI Industri No.54 , Tarikolot, Citeureup, Bogor, 16180, Jawa Barat",Apparel,-6.493289900000001,106.8912951
IT,Silcon Plastic S.R.L.,"ZONA INDUSTRIALE 2,, FORNO DI ZOLDO Belluno,, FORNO DI ZOLDO Belluno, 32012, Veneto",Apparel,46.34589829999999,12.1771585
JP,"Syuyusya Co.,Ltd.","5-1-10, shinozaki-machi, Edogawa-ku, 133-0061, Tokyo",Apparel,35.70389249999999,139.9085024
JP,Yorks Co Ltd,"609-2 Minato, Higashi Kagawa, 769-2798, Kagawa",Apparel,34.2449468,134.3492873
PK,Crown Textile Unit No.II,"Plot No. D-249/C1,, S.I.T.E, KARACHI, 75840, Sindh",Apparel,24.9066498,67.0155142
CN,"Ningbo Jinkang Industry Co., Ltd","No 1 Yuzhaojiang Road, Yuyao City, 315400, Zhejiang",Apparel,30.07537,121.18376
PK,N.F.K. Exports (Pvt) Ltd.,"F-748/C, SITE, KARACHI, 75700, Sindh",Apparel,24.8715661,66.9866311
PL,Euro-pegaz Logistyka Sp. z.o.o. - 2,"Centrum Logistyczne, Rozdzieskiego 12, Dabrowa Gornicza, 41-300, Slaskie",Apparel,50.35129389999999,19.2632023
ES,"Sampling Innovations Barcelona, S.L.","C/ Placa nova, 1, Santa Perpetua de la Mogoda, 8202, ",Apparel,41.53468,2.1826677
LK,Hirdaramani Mercury Apparel (Pvt) Ltd - Kirindiwela,"Lot 3, Maligawatte, kirindiwela, 11730, Western",Apparel,7.0411825,80.1289324
TW,"Elysian Enterprise Co., Ltd.","No. 5 JuiHsing Street, ChungHsing Industrial Park, Tongluo,, Miaoli, 36647, Taiwan",Apparel,24.4481942,120.792458
TW,"SUN SIGHT GLASSES CO., LTD.","No.25 Lane 150 Sec.2 An Ho Rd., Annan District (70967), Tainan, 70967, Taiwan",Apparel,23.0341761,120.192621
TW,"Yao I Fabric Co.,Ltd","No.13 Lugong N.1st Rd, Lukang Township, Changhua County, 50544, Taiwan",Apparel,24.0844397,120.4151756
TH,"Nan Yang Garment Co., Ltd. 3","168,170,172 Moo1,Phetkasem Rd.,, Sampran, 73110, Nakhon Pathom",Apparel,13.7466629,100.2058515
TR,Erateks Tekstil Sanayi ve Ticaret A.Ş. ,"Zafer Mah. 140. Sok. No:45 /1, Esenyurt/Istanbul, PK 34513, Istanbul",Apparel,41.0191585,28.6806609
US,PHARMASOL CORPORATION,"1 Norfolk Ave., Easton, 2375, Massachusetts",Apparel,42.050863,-71.0726191
VN,"Fashion Garments 2 Co., Ltd","Road 3, Bien Hoa Industry zone 1, Bien Hoa city, Dong Nai Province, Bien Hoa, 71000, Dong Nai",Apparel,10.9374492,106.826675
VN,"Haivina Kim Lien Co., Ltd.","NAM GIANG INDUSTRIAL COMPLEX,, NAM GIANG COMMUNE, NAM DAN DISTRICT, 460000, Nghe An",Apparel,18.6986693,105.5884754
VN,"Jasan socks Vietnam Co., LTD","No.2, Road 17, Vsip Hai Phong Township,  Industrial & Service Park, Thuy Trieu ward,, Thuy Nguyen district, Hai Phong city, 180000, Thanh Pho Hai Phong",Apparel,20.9052586,106.6729277
CN,"Jiangsu Tianhai Garments Co.,Ltd","NO.8,Tianhai Road, Guoyuan, Changjiang Town, Rugao City, 226542, Jiangsu",Apparel,32.103375,120.603914
VN,"Shilla Glovis Viet Nam Co., LTD","Cho Moi Hamlet, Long Hoa Commune, Go Cong Town, Tien Giang Province, Viet Nam, Tien Giang, 860000, Tien Giang",Apparel,10.3605904,106.6723162
VN,Thuan Phuong Embroideries Garments Company Limited Binh Chanh Factory,"D15/8 Dinh Duc Thien, Hamlet 4, Binh Chanh Commune, Binh Chanh District, Thanh pho Ho Chi Minh",Apparel,10.662564,106.573345
CN,JINJIANG DALI GARMENTS & WEAVING Co. Ltd.,"Donghaian Industrial Zone, Shenhu Town, jinjiang, 362200, Fujian",Apparel,24.6054547,118.667881
CN,JunYang (FuQing) Travel Appliances Co Ltd,"No. 336 Longjiang Road, Fuqing County, Fuzhou City, 350300, Fujian",Apparel,25.69893,119.38698
CN,"Lexi (Ningbo) Garment Co., Ltd.","Panhuo Inudstrial Zone, Sonjiang Road , Ningbo, Zhejiang , Ningbo , 315100, Zhejiang",Apparel,29.83062,121.57737
CN,"Lianyungang Taiyoung Fashion Co., Ltd.","No. 998 Jingdudadao Economic Industrial Park, Donghai, Lianyungang, 222300, Jiangsu",Apparel,34.5210899,118.74317
CN,"Mingle (China) co ltd,.","Xiban Industrial District,Chendai Town,Jinjiang, jinjiang, 362211, Fujian",Apparel,24.82404,118.62272
CN,"Nanjing Saga Garment Co., Ltd.","28 Fengze Road,, JiangNing district,, Nanjing city,, 211103, Jiangsu",Apparel,31.98824,118.87404
CN,Nantong City Taierjia Knitting Garment Co.Ltd.,"No. 1 Chengxi Road, Rugao City, 226575, Jiangsu",Apparel,32.3984,120.51024
AT,Silhouette International,"Elbognerstrasse 24,  Linz, 4021",Apparel,48.2589856,14.2873407
BD,Uni Gears LTD,"Badshamia School Road, Khailkur, Board Bazar, Gazipur, 1704, Dhaka",Apparel,23.9362173,90.3943683
KH,I-CHENG CORPORATION,"NATIONAL ROAD, NO. 3, PHUM TANG DONG, KHUM TANG DONG, SROK BATY, 21311, Takeo",Apparel,11.2845641,104.798771
CA,LEK Inc.,"315 Knowlton Road, Knowlton, J0E 1V0, Quebec",Apparel,45.2156194,-72.51343779999999
CN,Baijia (Fujian) Underwear Co Ltd,"Baijia Industrial Park , Shenhu Town, jinjiang, 362246, Fujian",Apparel,24.61534,118.67529
PK,DK FITNESS (PVT) LTD.,"SAIDPUR ROAD, Sialkot, 51310, Punjab",Apparel,32.5862555,74.5619968
CN,Cheng Guan Sport Product Technology Co. ltd,"Xin cheng Industrial Park, Liao Bu Town, Dongguan, 523426, Guangdong",Apparel,22.991746,113.884753
CN,DIXON SPORTS,"No. 150 Heping Rd North, Yingde, Guangdong",Apparel,24.172,113.41409
CN,Dongguan Chunlee Watch Company Limited,"No.47,Street 7,, Long Yan Park, Humen Town,, Dongguan, 511761, Guangdong",Apparel,22.8147,113.6728
CN,Dongguan Surewin Watch Company Limited,"Block 6, Bai Da Industrial Zone, Bai Guo Dong District, Zhang Mutou Town, Dongguan, 523638, Guangdong",Apparel,22.914909,114.083278
CN,GP2 Xinfeng Plant Limited,"No.63, XinFeng Industrial Park, XinFeng County, GanZhou, 341600, Jiangxi",Apparel,25.4324566,114.9168432
CN,HeShan YaYao Zeng Zhao Shoes Factory ,"No. 136, Xing Ya Road, YaYao Industrial Area, YaYao Town, HeShan, 529700, Guangdong",Apparel,22.706598,113.008586
CN,Huayuan Headwear Manufacturing Co. Ltd ,"1099 Xiushan West Road, Haimen, 226100, Jiangsu",Apparel,31.88398,121.15134
CN,"Nantong Huiyuan Plastic Products Co., Ltd","No.26, Su Chi Village, Liuqiao Town,Tongzhou City, Nantong, 226300, Jiangsu",Apparel,32.158875,120.843783
CN,"Ningbo Fenghua Hengyi Garments Co., Ltd.","NUMBER 48, HENGAN ROAD, FANGQIAO INDUSTRIAL, JIANGKOU STREET, FENGHUA, Ningbo , 315514, Zhejiang",Apparel,29.72461,121.40651
CN,Ningbo Kelly Fashions,"Wangjiaqiao town, Yinzhou district, Ningbo City, 315100, ",Apparel,29.83109989999999,121.576
CN,Qingdao Huahe Knitting Co Ltd,"NO.301  HUANGHE 2 ROAD ,JIMO QINGDAO, Jimo, Qingdao, 266200, Shandong",Apparel,36.4021359,120.4726249
CN,Quanzhou Hecheng Bags Co. Ltd,"Tangxi Industrial Zone, Wanan Street , Luojiang District, Quanzhoou, 362000, Fujian",Apparel,24.9059487,118.598949
CN,Q-Yield Outdoor Gear Ltd. ,"No. 9 Dongfu West 2nd Road, Haicang, Xiamen, 361027, Fujian",Apparel,24.53338,117.96607
CN,Shandong Gunze Apparel Ltd.,"Dongfeng Group Industry Zone Mingshui Economic  Zone,, Zhangqiu, 250200, Shandong",Apparel,36.73638,117.49916
CN,Shanghai Yutuo Knitting Co. Ltd,"NO 118 KANBEI ROAD, SITUAN TOWN, FENGXIAN DISTRICT, Shanghai, 201412, Shanghai Shi",Apparel,30.93219,121.728
CN,"SHENG COMPOSITE TECH CO., LTD (XIAMEN)","38TH HULI INDUSTRIAL PARK, MEIXI ROAD, XIKE TOWN, Xiamen, 361100, Fujian",Apparel,24.65534,118.15481
CN,Shenzhen HeiYun Packing Co Ltd,"Building 48 & 1/F to 3/F of Building 47,, Bao-Tian Industrial Zone, Oian-Jin 2 Rd, XiXiang, Baoan District , Shenzhen City , 518102, Guangdong",Apparel,22.58035,113.88359
CN,"Subsidiary Factory of Zhejiang Hongyao Socks Co, Ltd","No. 42, Chuntang Road,, Caota Town,, Zhuji, 311820, Zhejiang",Apparel,29.7136399,120.23632
CN,"Suzhou Jiahua Biochemistry Co., Ltd.","No. 688 GuoQing Road, Lili Town, Wujiang, SUZHOU, 215212, Jiangsu",Apparel,30.98973,120.71057
CN,TIAN JIN YIN MEI GARMENT COMPANY LIMITED,"MAJIADIAN INDUSTRIAL AREA OF , BAODI COUNTY, Tianjin, 301800, Tianjin Shi",Apparel,39.6609,117.27058
CN,Worthpak Manufacturing Limited,"Shanbaotan Industrial Zone, Shipai Town, Donguan City, 523335, Guangdong",Apparel,23.08922,113.93997
CN,XIAMEN B-SHENG COMPOSITE TECH CO LTD,"100 Simingyuan, Tongan Jizhong Industrial, Tongan District, Xiamen , 361022, Fujian",Apparel,24.6881481,118.1190091
CN,"Xiamen Mydo Sports Equipment Co., Ltd.","No. 30, Bannan Road, Dongfu Street, Haicang District, Xiamen, 361026, Fujian",Apparel,24.55493,117.93005
CN,"Xinxing Xin De Run Garment Co., Ltd","Guangxing Avenue, Dongyao, Dongcheng Town, Xinxing County, Yunfu, 527400, Guangdong",Apparel,22.65727,113.25858
CN,YIA-CHYNS TEXTILE (SHANGHAI) CORP,"BUILDING 2, NO.688 FENG YONG ROAD, FENGXIAN DISTRICT, Shanghai, 201414, Shanghai Shi",Apparel,30.9236099,121.58155
CN,"Young Sporting Goods (Suzhou) Co., Ltd.","No.498 ChangAn Road, Wujiang Economic & Technological Development Zone, SUZHOU, 215200, Jiangsu",Apparel,31.17991199999999,120.675472
CN,Zhejiang Arcana Power Health Tech Co Ltd,"Nr 618 Xinxing Avenue , Zonghan,Emerging Industrial Area, Cixi, Cixi, 515000, Zhejiang",Apparel,30.229172,121.212732
RU,JSC Arnest,"Kombinatskaya str, 6, Nevinnomyssk, 357107, Stavropol'skiy",Apparel,44.6846106,41.9587532
CN,"Zhejiang Hongyao Socks Co.,Ltd.","NO. 88 HANG JIN QI VILLAGE, CAOTA TOWN, Zhuji, 311812, Zhejiang",Apparel,29.6838299,120.13469
CN,"Zhejiang Meixina Garment Co., Ltd","No. 366 Xiwang Road, Jindong Economic Development Zone, JinHua, 321036, Zhejiang",Apparel,29.216128,119.829894
CN,"Zhejiang Shaxue Underwear Co., Ltd.","No. 100 Qianan Road, Fotang Town, Yiwu, 322023, Zhejiang",Apparel,29.19298,120.04394
CN,Zhongshan WeiLi Textile Co. Ltd.,"The second Industrial Area, SanXiang Town, Zhongshan, 528463, Guangdong",Apparel,22.35798,113.44142
CN,ZhuCheng RiLi Garments Co. LTD.,"South west end of mianzhi street , Zhucheng, Shandong  province , Zhucheng, 262200, Shandong",Apparel,35.98233,119.39321
CZ,Ravensburger Karton s.r.o. (RKC),"Strizezska 968,  , Policka, 57201, ",Apparel,49.714934,16.2658769
EG,Ahmed Ahmed Abbas for Readymade Garments,"El Andalus St, El Bagour, Menofia, 2002, Al Minufiyah",Apparel,30.4396164,31.0358045
EG,T.M.I EGYPT,"STREET NO.9 AMRIYA PUBLIC FREE ZONE,  ALEXANDRIA    , 23512,  ALEXANDRIA    ",Apparel,31.2000924,29.9187387
SV,Impression Apparel Group S.A. de C.V.,"Blvd. Del Ejercito Km 8 1/2 Y Calle Cooperativa Algodonera, Edificio 1, Soyapango, San Salvador, ",Apparel,13.6921267,-89.1362101
DE,DÖHLER GMBH,"Riedstraße 7-9, Darmstadt, 64295, ",Apparel,49.8590822,8.630369
HT,GO HAITI,"39 PARC INDUSTRIEL, SONAPI, RTE DE L’AEROPORT, PORT-AU-PRINCE, HT00043, ",Apparel,18.5735608,-72.309643
HN,POLYGRAPHIC,"GREEN VALLEY INDUSTRIAL PARK, QUIMISTAN, N/A, Santa Barbara",Apparel,15.3442178,-88.18306439999999
ID,PT Dada Indonesia,"Jl. Raya Sadang, Ciwangi, Kec. Bungursari, Purwakarta, 41118, Jawa Barat",Apparel,-6.5115661,107.4577554
ID,PT Gistex Garmen Indonesia,"Jl. Panyawungan KM. 19 Cileunyi, Wetan Kabupaten Bandung , Bandung, 40622, Jawa Barat",Apparel,-6.946813199999999,107.7533356
TW,"Jack Pan Co., Ltd.","No.9, Qianliao Rd., Shengang Dist.,, Taichung, 429, ",Apparel,24.2582701,120.7014907
ID,PT KANAAN GLOBAL INDONESIA,"JL. Ronggolawe RT.02/18 Kel. Telukan, Kec. Grogol Kab. , Sukoharjo, 57552, Jawa Tengah",Apparel,-7.6204997,110.8240364
ID,PT. Harindotama Mandiri,"Kapuk Kamal Muara No.88, Tegal Alur,, Kalideres, Jakarta Barat, Jakarta, 11820, Daerah Khusus Ibukota Jakarta",Apparel,-6.1110723,106.7222915
ID,PT. Ricky Gunze,"JL. Industry No.54, Tarikolot Citeureup, Bogor, 16810, Jawa Barat",Apparel,-6.493289900000001,106.8912951
IT,Dal Dosso Sport snc,"Via Aldo Moro, 9, 28011 Armeno (NO), Armeno, 28011, Lombardia",Apparel,45.8192146,8.4367255
IT,Gloria Srl,"Via Torino, 101, Leini, Torino, 10040, Piemonte",Apparel,45.16935429999999,7.7130898
JP,"Seed Co.,Ltd.","3-5-25 Uchindai-cho, Miyakojima-ku, 534-0013, Osaka",Apparel,34.7111719,135.5381684
JP,TOA-STRINGS Oita Factory,"81-2, Karishuku, Oaza, Kitsuki-City, 873-0031, Oita",Apparel,33.4207932,131.6848823
JP,"Yamagata Mitsubishi Pencil Precision Co.,ltd.","4026-1, kamikomatsu, kawanishi-machi, 999-0121, Yamagata",Apparel,38.0070001,140.028206
JP,YUI KOUBOU CO. LTD,"497-6 Yamanokami Machi, Ota-Shi, 379-2302 , Gunma",Apparel,36.349598,139.3132577
PK,Anwar Khawaja Composite,"Anwar Khawaja Yard, Sadra Badra, Daska road, Sialkot, 51310, Punjab",Apparel,32.4682334,74.51459410000001
KR,Saramsarang,"306 , GUNYOUNG B/D, 1188-1, JUKJEON-DONG, SUJI-GU,, YONGIN-CITY, 3393, Gyeonggi-do",Apparel,37.3319196,127.1264332
MY,Gallant Industries (M) Sdn Bhd,"LOT 73351 JALAN PENGKALAN, LAHAT, 31/500 Lahat, LAHAT IPOH, 31500, Perak",Apparel,4.5003835,101.0122896
MX,Tecnosol S.A. de C.V.,"Alce Blanco 49, Fraccionamiento Industrial Alce Blanco, Naucalpan, 53370, Mexico",Apparel,19.4786688,-99.22578039999999
NL,Eurobottle BV,"Pioniersweg 32, Dronten, 8251 KN, Flevoland",Apparel,52.5406393,5.7208472
PK,Forward Sports (PVT) Ltd,"P.B. Box 1704, Adda Sahowala, Wazirabad Road, Sialkot, 51310, Punjab",Apparel,32.4778044,74.41376389999999
PK,Mansha & Brothers PVT.Ltd.,"Wazirabad Road, Ugoki, Sialkot, 51310, Punjab",Apparel,32.4784473,74.41684889999999
PK,Starpak Martial Arts (Pvt) Ltd,"6-Km,, Wazirabad Road near Noul,, Sialkot, 51310, Punjab",Apparel,32.4846829,74.4625045
PK,XPRO Sportswear PVT. LLC.,"Near Catholic Church, AADHA, Daska Road, Sialkot, 51310, Punjab",Apparel,32.4362412,74.4810947
PL,ColepCCL Polska,"Ul. Przemyslowa 10, Kleszczów, 97-410, Lodz",Apparel,51.213821,19.296488
PT,"4teams - Advertising & Merchandising, Lda.","Rua da Industria, 89, PO Box 160, Vizela, 4815-901, Minho",Apparel,41.3715793,-8.2967082
RO,S.C. PROGRESS S.A.,"STREET:FANTANII,27A,, Brasov,, 500482, ",Apparel,45.7055166,25.5749752
ES,"GRAFOPACK, S.A.","Ctra. N-II, Km. 557, Odena, 8711, ",Apparel,41.6584556,1.1736213
ES,MANIPULADOS MICSOS S.L.,"Avinguda de Sant Julià, 125 - 127, Granollers, 8403, Catalunya",Apparel,41.5893628,2.2745466
ES,Prohima Internacional S.A.,"Crta. N-II, Km. 644 - Torre d'Ara, Mataró, 8302, Catalunya",Apparel,41.5233663,2.4281286
VN,Shilla Bags International,"CHANH HAMLET,, DUC LAP HA COMMUNE, DUC HOA DISTRICT, Duc Hoa Town, 81000, Long An",Apparel,10.9066982,106.4464766
LK,Ceylon Knit Trend (Pvt) Limited,"Divurumpitiya, Getahetta, Eheliyagoda, 70620, Sabaragamuwa",Apparel,6.9179718,80.2223717
SY,Majed & Mohamed Alzayed Company,"Shahnaya, Daraa International Higway, PO Box 197, Damascus, 197, Dimashq",Apparel,33.5138073,36.2765279
TW,Chengyi Optical Co Ltd,"No.42, Industrial 2nd Road, An Nan District, Tainan, 709, ",Apparel,23.0585336,120.1358346
TW,Dyaco International Inc.,"No 1 Gong 1st Rd, Gyuan Sing Industrial Park, Hemei Town, Changhua County, 508, Taiwan",Apparel,24.1122859,120.4983956
TW,HO CHENG SPORTS MFG. CO. LTD.,"NO. 22, LANE 23, ZHONGYANG ROAD,, YONGKANG, TAINAN CITY, Tainan, 71045, Taiwan",Apparel,23.0224193,120.215051
TW,Lien Yei Garment Factory,"No. 413 Section 2, Ching Yun Road, Tou Chen Town, I-lan Hsing, YILAN COUNTY, 261, Taiwan",Apparel,24.8576121,121.8234687
TW,"Racer Sporting Goods Co., Ltd.","17 Kung 6 Rd,, Linkou 2nd Ind. Park, New Taipei City, 24450, Taiwan",Apparel,25.0790108,121.3881378
TW,REN-E Sports Goods Co Ltd,"No 168, 14 Alley, Nan Yang 6 Rd, Sha Lu, Taichung Hsien, 433, ",Apparel,24.2377939,120.5854674
TW,Twou Tson Enterprise Co. Ltd.,"No. 50, Lane 33, Sec 5, Chung Ho St. , Shin Sheh District, Taichung City, 42643, Taiwan",Apparel,24.1477358,120.6736482
TH,"Milott Laboratories Co., Ltd.","84/55 Moo 11 Soi Tanasit, Teparak Road, Bangpla, Bangplee, Bangplee, 10540, Samut Prakan",Apparel,13.5818289,100.759401
US,"Hydro Graphics, Inc.","705 S. Springbrook Rd. Suite A100, Newberg, 97132, Oregon",Apparel,45.2943587,-122.9486301
TH,Nan Yang Garment Co Ltd,"27 Phetkasem 71 Road, Nongkangploo, Nongkham, Bangkok, 10160, Bangkok",Apparel,13.7054826,100.369294
TH,"New Asia Sports Goods Co., Ltd","55 Suwintawong Rd., Kratumrai, Nongchok, Bangkok, 10530, Thailand., Bangkok, 10530, Bangkok",Apparel,13.8063128,100.84551
TH,"UNIVERSAL SPORTING GOODS (THAI) CO., LTD.","91/1 MOO1 SOI WATTHIEN-DAD, PETCHKASEM RD., BAN-MAI, SAMPHARN, Nakhonpathom, 73110, Nakhon Pathom",Apparel,13.7466629,100.2058515
GB,Echelon Sport Ltd,"Unit D, Zenith Park, Whaley Road, Barnsley, South Yorkshire, Barnsley, S75 1HT , England",Apparel,53.5678403,-1.514044
US,Coty US LLC,"1400 Broadway Road, Sanford, 27332, North Carolina",Apparel,35.4569145,-79.11074889999999
US,Penn Prints Inc,"7110 Center Drive, Spartanburg, 29303, South Carolina",Apparel,34.9863344,-81.974703
VN,Chuan Mei Glove (Vietnam) Co. Ltd.,"Tan Thuan Export Processing Zone, NO. 12 Street, District 7, Ho Chi Minh City, 70999, ",Apparel,10.7513608,106.7405605
VN,"Fashion Garments 2 Co., Ltd - Tan Phu Branch","Road 3, Tan Phu Industrial Zone, Tan Phu District , Bien Hoa, 71000, Dong Nai",Apparel,11.2677446,107.4292386
VN,"Fashion Garments Mekong Co., Ltd","814B, Highway 30, Hamlet 3, An Hoa Commune, Tam Nong District,, 870000, Dong Thap",Apparel,10.7407345,105.3651631
VN,Ivory Trieu Son Thanh Hoa Co.Ltd,"Hamlet 4 - Tho Vuc commune - Trieu Son district - Thanh Hoa province, Trieu Son, 440000, Thanh Hoa",Apparel,19.8056149,105.7776306
VN,"JC Int’l Vina Co., Ltd","Hoa Lan Quarter, Thuan Giao Ward, Thuan An Town, Binh Duong Province, Binh Duong, 72000, Binh Duong",Apparel,10.9490232,106.7135934
VN,Lawnyard Vietnam Co. Ltd.,"F4-F6 RD4, Industry Zone Le Minh Xuan, Binh Chanh District, Ho Chi Minh, Not Applicable, ",Apparel,10.7661714,106.5230542
VN,Sonha Company Ltd,"Group 2, Dong Khoi Street, Tan Hiep Ward, Bien Hoa City, N/A, Dong Nai",Apparel,10.9646108,106.8628225
VN,TNG Investment & Trading JSC - Dai Tu Branch,"Thang Loi Ward, Tien Hoi Commune, Dai Tu District, 250000, 1, 250000, Thai Nguyen",Apparel,21.6469074,105.6207263
VN,"United Swimwear Apparel Co.,Ltd","Lot C1, Suoi Dau Industrial Zone , Cam Lam District , Cam Lam District , 57000, Khanh Hoa",Apparel,12.1523774,109.0682689
ZA,Indigo Brands (Pty) Ltd.,"16-20 Evans Avenue, Epping 1, Cape Town, 7460, Western Cape",Apparel,-33.9358845,18.5394753
CN,"IDT Electronics(Shenzhen) Co., Ltd","2nd floor, Block 31, XiXiang Chentian Industrial Estate, XiXiang Town, BaoAn County, Shenzhen, 518102, Guangdong",Apparel,22.592625,113.872089
CN,Jiangsu Qian Li Ma Stockings Co. Ltd.,"Dong Lai Development Area, Yang She Town, Zhang Jia Gang, 215600, Jiangsu",Apparel,31.86264,120.51556
CN,Jilin Province Northeast Socks Industry Park Hosiery Knitting Co. Ltd ,"Building F6, Northeast Socks Textile Industry Park, Economic Development Zone, Liaoyuan, 136200, Jilin",Apparel,42.917641,125.040472
CN,K-pack Company Ltd,"3rd Building No.3 , Industrial Zone, Tiantou, Hengli Town, Dongguan, 523478, Guangdong",Apparel,23.01897,113.96649
CN,"KunShan XinHanTang Textile Products Co., Ltd.","Building 3 and 4, No. 198, HuaXia Road,, LuJia Town,, Kunshan, 215337, Jiangsu",Apparel,31.33496,121.03478
CN,"Lianyungang Uidea  Industry Co.,Ltd","A8 building, small-sized  enterprise park, West area, Economic development  district, Donghai, Lianyungang, 222300, Jiangsu",Apparel,34.5210899,118.74317
CN,"Morito (Shenzhen) Co., Ltd.","A District, Yuhong Industry Zone, Heyi Village, Shajing Town, Bao An District, Shenzhen, 518104, Guangdong",Apparel,22.73911,113.80547
CN,Nan Jing Gather Europe Headwear Manufacture Co. Ltd.,"ROOM 402, NO.16 FENGHUI AVENUE, YUHUA ECONOMIC DEVELOPMENT ZONE, Nanjing, 210039, Jiangsu",Apparel,31.926778,118.637954
AT,Erdal GesmbH & Co KG,"Neualmerstr.13, Hallein, 5400, Salzburg",Apparel,47.6862511,13.092473
BR,Savoy Indústria de Cosméticos S.A.,"Rua Contorno Oeste, SN, Quadra 01 / Lote 01/16 / Módulo 01, Polo Coureiro, Senador Canedo, 75250-000, Goias",Apparel,-16.7277651,-49.1444601
KH,Hulu Garment Co ltd,"Phum Chak Chrouk, Sangkat Samrong Kram,, Khan Dangkor, Phnom Penh,, Kingdon Of Cambodia, Phnom Penh, 12400, ",Apparel,11.5513349,104.8144547
CN,"Automax Anhui Co., Ltd.","No. 2 Building, 123 Intelligent Knitting Park, Intersection of East Road & Yinglin Road, Yingshang Economic Development Zone, Fuyang, 236200, Anhui",Apparel,32.64582,116.31742
CN,BAOJI HAWK IND. & TRADE CO. LTD,"No. 17 Chencang Middle Road, Chencang District,Baoji City,   , Baoji , 721300, Shanxi",Apparel,34.35497,107.37158
CN,Quanzhou Mutuzhe Garments Co Ltd,"No.75th. Zhitai Road, Economic Development Zone, Quanzhou, Fujian",Apparel,24.86706,118.56439
CN,Bonny Composite-Tech(Tongxiang)LTD.,"No. 199,East Fengxiang Road, Tongxiang, 314500, Zhejiang",Apparel,30.59842,120.57052
CN,ChangZhou QingQing Knitting Factory,"1/F, Block D,, No. 1315, JinSha Avenue,, JinTan District,, ChangZhou, 213234, Jiangsu",Apparel,31.686184,119.535508
CN,Dalian Ichihiro Towel Co Ltd,"Dongbei 3rd Street, No.11, Dalian Economic & Technical Development Zone, Dalian, 116600, Liaoning",Apparel,38.9139899,121.6147
CN,"DEJET INDUSTRY CO., LTD.","No 518, Zhengtong Rd, Kandun Industry Zone, Cixi,, Cixi, Ningbo City, Zhejiang, 315303, Zhejiang",Apparel,30.2138451,121.261218
CN,"Rongcheng City Yu Chang Sports Co., Ltd.","Rongcheng City West Town Industrial Park, Weihai Rongcheng, 264300, Shandong",Apparel,37.1655999,122.487
CN,"Dongguan Oak Sports Goods Co., Ltd. ","No. 1 Keyuan 4th Road Tangxia Town, Dongguan  City, 523718, Guangdong",Apparel,22.806965,114.072575
CN,DONGGUAN SHUOKE PLASTIC&METAL PRODUCTION  CO ,"3th INDUSTRIAL JINSHAN VILLAGE  CHASHAN TOWN, Dongguan, 523399, Guangdong",Apparel,23.05793,113.89935
CN,DONGKOU CHANGGUANLONG SPORTING GOODS CO.,"Dongkou Economic Development Zone, Dongkou County, Hunan Province, Shaoyang, 422300, Hunan",Apparel,27.07003,110.5896
CN,"HangZhou  Jasan Socks Co.,Ltd","No. 111 JinYi Road,, XiaoShan Economic Developing Zone, Hangzhou, 311215, Zhejiang",Apparel,30.191245,120.269796
CN,"Xiangshui Maoda Textile Technology Co., Ltd","No.8 , Yin hai Rd, Economic Development Zone, Yancheng City  , Jiangsu",Apparel,33.33813,120.18474
CN,GuanDi Leather Goods,"No. 3, Huaiya RoadHuaide Management District, Humen Town, Dongguan, Humen Town, Dongguan, 523926, Guangdong",Apparel,22.8147,113.6728
CN,GUANGDONG RONGCHENG SPORTS MANUFACTURE COMPANY LIMITED DONGGUAN CHANGPING FIRST BRANCH,"No. 5 Su-Keng Industrial 2nd Road, Su-Keng Village, Chang Ping Town, Dongguan, 523577, Guangdong",Apparel,22.9646716,113.9586625
CN,GuangZhou GuanSheng Footwear Co Ltd,"No. 12, Industrial Avenue, Huadu District, Guangzhou City, 510800, Guangdong",Apparel,23.3796999,113.21
CN,Haining United Socks Co. Ltd,"No. 360 Haifeng Road, Haichang Street, Haining, 314400, Zhejiang",Apparel,30.40841,120.62752
CN,Hangzhou Crystal Sports Equipment Co. Ltd.,"ChengDong Village, HengCun Town, TongLu Country, Hangzhou, 311502, Zhejiang",Apparel,29.84265,119.61424
CN,Hangzhou Xuanbo Fitness Equipment Co Ltd,"No 8,RD 05,Dongzhou Industry Zone, Fuyang District, Hangzhou, 311401, Zhejiang",Apparel,30.078,120.06754
CN,HuaEr Technology Group Co. Ltd.,"48 Shijing Road, HaiNing Economic Development Zone,, Haining, 0, Zhejiang",Apparel,30.538162,120.663302
CN,"Hunan Sky Knitting Co., Ltd.","Yi Yang Industrial Corridor, Changning , 421500, Hunan",Apparel,26.415938,112.373632
CN,"Hwa Mao Optical (Xiamen) Co., Ltd (Tong An Branch)","No. 99, Si Kou Zhen Road,, Xin Min Town,, Tong An District, Xiamen, 361100, Fujian",Apparel,24.71249,118.13534
CN,"NANTONG RENAISSANCE ACCESSORIES CO.,LTD.","NO. 98 XINGYUAN NAN ROAD, XIAYUAN TOWN, RUGAO, 226543, Jiangsu",Apparel,32.2237399,120.63891
CN,Ningbo Jiana Dress Co. Ltd.,"Building D, Inside JiaLe Industrial Park,, No. 189, TongDe Road, GuLin Town,, YinZhou District,, Ningbo, 315176, Zhejiang",Apparel,29.85282,121.51163
CN,OMA Metal Industrial Co.Ltd,"Xihai Erzhi Industrial Area, Beijiao Town, Shunde Foshan, 528311, Guangdong",Apparel,22.91329,113.2539
CN,"PUTIAN XIANGGUAN FOOTWARE CO., LTD","Hualin Industry Area, Chengxiang District, Putian, 351139, ",Apparel,25.3816599,118.89337
CN,"Qingdao Huasheng Socks Co., Ltd","Jifa Industrial Park, Jimo, Qingdao, 266200, Shandong",Apparel,36.3710999,120.44896
CN,"QINGDAO YAHONGSHUN GARMENT CO.,LTD","NO.19 TONGXIN ROAD,JIAOZHOU,QINGDAO,SHANDONG, Qingdao City, 266300, Shandong",Apparel,36.26041,119.97442
CN,"Shanghai Jiaheng Daily Chemical Co., Ltd.","1069 Taogan Road, Sheshan Town, Songjiang District, Shanghai, 201602, Shanghai Shi",Apparel,31.12195,121.18737
CN,"Shanghai Qingpu ACE Luggage & Bags Co.,Ltd","No.4508 Beiqing Rd, Huaxin Town, QingPu District, Shanghai, 201705, Shanghai",Apparel,31.23998,121.48189
CN,Shaoxing Sunku Sports Goods Co.Ltd,"Paozhong Road, PaoJiang Industry Zone, Shaoxing, 312000, Zhejiang",Apparel,30.078418,120.617471
CN,"Shenzhen Cobra Sports Co., Ltd. ","No. 18 Xihutang Street, Pingdong Community, Pingdi Sub-District, Longgang District, Shenzhen, 518117, Guangdong",Apparel,22.766801,114.314034
CN,"Shenzhen Square Bottle Co., Ltd.","No.2&5, C3 Bldg, C District, Lianhe Industrial, Nanye Community, Longgang District, Shenzhen City, 518116, Guangdong",Apparel,22.701599,114.274149
CN,"SKY PRECISION WATCH (SHENZHEN) CO., LTD.","NO 231 QINGLING ROAD, HUANGGE KENG, LONGCHENG SUBDISTRICT, LONGGANG  DISTRICT, Shenzhen, 518172, Guangdong",Apparel,22.71942,114.22642
CN,Smartballs Ag.,"Lushan City Industrial Park, Jiujiang City,, Jiangxi Province, China, Jiujiang City, 332800, Jiangxi",Apparel,29.4836799,116.0455299
CN,Taka Sporting Goods Inc.,"No 8 3rd Industrial Zone, Xiancun, Gongming Town, Guangming District, Shenzhen, 518106, Guangdong",Apparel,22.8076699,113.88845
CN,"Tianjin Tianxing Kesheng Leather Products Co., Ltd.","No. 2, Jianshe Road, Chengguan Town, Baodi District, Tianjin City, 301800, Tianjin Shi",Apparel,39.11509,117.21615
CN,"Weixuan Weaving Co.,Ltd. of Fujian","Guan qiao, Longqiao, Anxi economic zone, Quanzhou, Fujian, Quanzhou, 362441, Fujian",Apparel,25.015295,118.095882
CN,Wellpower (Jiangxi) Sporting Goods Co.Ltd.,"Xinqu Avenue, Economic Development New Zone,, Xingguo County, Ganzhou City, 342400, Jiangxi",Apparel,26.316244,115.369262
CN,"WuYi ShunFeng Stainless Steel Products Co., Ltd.","No.2, WuJin Road, TongQin Ind. Zone,WuYi County, JinHua, 321200, Zhejiang",Apparel,28.86339,119.952
CN,XIAMEN MINGHO BROTHERS MFG CO.，LTD.,"XITANG VILLAGE,XINMIN TOWN,TONG’AN DISTRICT, Xiamen, 361100, Fujian",Apparel,24.71249,118.13534
CN,Xiamen Spark Sports Goods Co Ltd,"55-56 Siming Gharden, Industry Central Zone, Tongan, Xiamen, 361100, Fujian",Apparel,24.7774499,118.13819
CN,"YANGZHOU SUMEC CHANGJIANG GARMENT CO.,LTD","NO. 8 GUOSHUI,SHATOU TOWN, GUANGLING DISTRICT,YANGZHOU, YANGZHOU, 225000, ",Apparel,32.30914,119.53264
CN,"Yantai NE Apparel Co., Ltd","No. 26, Yantai Street, HaiYang Industrial Park, hai Yang  YanTai  ShanDong   China, Haiyang, 265100, Shandong",Apparel,36.74016,121.19152
CN,"Zhang Pu Da Ye Umbrella Co., Ltd.","HUANG CANG INDUSTRIAL ZONE, ZHANG PU COUNTY, Zhangzhou, N/A, Fujian",Apparel,24.1170999,117.61372
CN,"ZHE JIANG FEIFENG SPORTS GOODS CO.,LTD","LANTING ECONOMY EMPOLDER SECTION, Shaoxing, 312000, Zhejiang",Apparel,29.9966586,120.5647896
CN,Zhejiang Celebrity Finery Co Ltd,"No. 17 of Caiyun Road, Yinan Industrical Park, Yiwu, 322000, Zhejiang",Apparel,29.18435,120.04425
CN,Zhejiang DKCity Corporation,"No. 27, Longquan Rd., Huimin St, Zhejiang Province, Jiashan, 314100, Zhejiang",Apparel,30.86046,120.969
CN,"Zhejiang Dongyang DingDa Leather Co., Ltd.","Dingzhai Village,, Qianxiang Town,, Dongyang, 322124, Zhejiang",Apparel,29.03750999999999,120.3151
CN,Zhejiang Hepolilo Socks Industry Co. Ltd,"No. 382 Xiachuan Rd, Haining, 314400, Zhejiang",Apparel,30.54105,120.72133
CN,"ZIEBART APPAREL (DALIAN)TRADING CO.,LTD.","TANGLI VILLAGE HONGQI STREET , GANJINGZI DISTRICT DALIAN CHINA, Dalian, 116000, Liaoning",Apparel,38.92926,121.43829
CN,Zhejiang Meibang Textile Co Ltd,"No.8 The Fifth Xingye Road, Chengxi Economic Development Zone  Zhuj China 311800, CHENGXI ECONOMIC, DEVELOPMENT ZONE, 312000, ",Apparel,35.86166,104.195397
CN,ZHEJIANG TIANCHENG GARMENT CO. LTD.,"NANRI FENQU, GAOQIAO INDUSTRIAL ZONE, GAOQIAO TOWN, TONGXIANG CITY, ZHEJIANG PROVINCE, CHINA, Tongxiang, 314500, Zhejiang",Apparel,29.895643,121.468143
CN,"ZHONGSHAN JIN SHENG GARMENT CO., LTD","DI YI GONG YE QU ZHONG SHAN TAN ZHOU, Zhongshan, 528467, Guangdong",Apparel,22.274911,113.563955
DO,Universal Athletics,"Avenoda Maximo Gomez, Zona Franca La Ameria, San Cristobal, Zona Franca La Ameria, N/A, San Cristobal",Apparel,18.4180414,-70.1065849
EG,"El Helal Company for Knitting, Dyeing & Readymade ","PLOT 3/1 - MISR COMPANY INDUSTRIAL ZONE , BEHERA, EGYPT, Kafr El Dawar , 22638, Buhayrah",Apparel,31.13403569999999,30.133566
EG,Embee International Industries,"PUBLIC FREE ZONE, ISMAILIA, 41511, ",Apparel,30.5964923,32.2714587
SV,Chi Fung SA de CV,"Carretera Troncal Del Norte, KM 12, Ciudad Apopa, San Salvador, N/A, San Salvador",Apparel,13.7903228,-89.1756432
SV,"WESTTEX APPAREL, S.A. DE C.V.","ZONA FRANCA SAN BARTOLO CALLE CHAPARRASTIQUE POL K EDIFICIO No. 20, ILOPANGO, NA, San Salvador",Apparel,13.699185,-89.1216187
HT,Val d'Or Apparel Manufacturing Haiti S.A (aka Valdor),"Rue Pierre Paul Tabarre 27, Croix Des Bouquets, PORT-AU-PRINCE, HT6110, Ouest",Apparel,18.580522,-72.2678251
HN,Bay Island Sportswear,"Zip San Jose , Building 3-4 , 20-27 calle 2do Anillo Periferico , San Pedro Sula, 21103, Cortes",Apparel,15.4817795,-88.00654469999999
HN,Pinehurst Manufacturing GMBH,"Zoli St Andrews, Colonia Agua Prieta , Sector Rivera Hernandez, San Pedro Sula, Cortes, Honduras, San Pedro Sula, -504, Cortes",Apparel,15.4793285,-87.94328370000001
IN,Krishna Sports Industries,"S-10, NEAR DAINIK, SAVERA OFFICE, Jalandhar, 144004, Punjab",Apparel,31.3508253,75.5713523
IN,SSG Apparels - Unit II,"No. 34 Nethaji Apparel Park, EEtiveerampalayam, New Tirupur, 641666, Tamil Nadu",Apparel,11.207883,77.32611
ID,PT Eagle Glove Indonesia,"Bayen Village, Purwomartani, Kalasan, Sleman, Yogyakarta, 55571, Daerah Istimewa Yogyakarta",Apparel,-7.7532918,110.4627039
ID,PT Greentex Indonesia Utama,"Kawasan Berikat Nusantara, Jl. Sumatra Blok E No. 12A Cakung, Cilincing, Jakarta Utara, 14140, Daerah Khusus Ibukota Jakarta",Apparel,-6.1278865,106.9302739
ID,PT Leading Garment Industries,"JL. Mengger No.97 , Moh. Toha KM 5,6 Bandung , Bandung, 40256, Jawa Barat",Apparel,-6.965225600000001,107.6151792
ID,PT Yuni International ,"Kp. Menteng Dua RT.04/RW01., Desa Pasir Laja, Kecamatan Sukaraja, Kabupaten Bogor, Bogor, 16710, Jawa Barat",Apparel,-6.5495685,106.8259498
IT,CAFIERO SRL,"Via u. Bracalenti 20 Z.I. CESA, LIMANA, 32020, Veneto",Apparel,46.0967742,12.1563729
IT,Calzificio Anson,"Via Racale-Melissano 133, Racale, 73055, ",Apparel,39.9685484,18.1192187
IT,GENESI SRL,"Via Walter Tobagi, 37, Casaloldo/MN, 46040, Lombardia",Apparel,45.2639668,10.4755706
JP,"KANSAIDO CO, LTD","980-7 Jyunisho, Yabu, 667-0102, Hyogo",Apparel,35.3719887,134.7615836
JP,"Kokuyo Product Shiga Co.,Ltd.","312 Kamikano, Aisho-cho Echi-gun, 529-1203, Shiga",Apparel,35.1557202,136.2743742
JP,Molten Corp. Hiroshima,"1-5-8, Nakahiro-Cho, Nishi-Ku, Hiroshima, 7330012, ",Apparel,34.4039718,132.4430928
JP,Tabata Co Ltd Ibaraki Factory,"651-2 Industrial-park, Hitachi-Omiya, 319-2134 , Ibaraki",Apparel,36.5362607,140.3765759
JP,"Totsuya Echo Co.,ltd.","13-2 Sasame Kita-machi, Toda, 335-0033, Saitama",Apparel,35.8216377,139.6551411
KR,AUAPLUS,"353-4 SAMNAK DONG,SASANG-GU,BUSAN, KOREA, BUSAN, 617-825, Pusan-gwangyoksi",Apparel,35.1858459,128.9779578
RO,SC INDUSTRIA DE INCALTAMINTE [SOARA],"Str. Ion Vidu n.7, Buzias, 305100, Timis",Apparel,45.6459041,21.614884
KR,Juno Apparel(Factory),"16, Gyeyang-daero140beon-gil,,  Gyeyang-gu, Incheon, 21088, Inch'on-gwangyoksi",Apparel,37.5362027,126.7244043
MM,United Knitting (Myanmar) Co. Ltd,"Industrial Zone No. 3, No. 43 Hlain Tharyar Township, Yangon, 11401, Yangon",Apparel,16.850826,96.11559319999999
PK,AL AMIN EXPORTS,"WH-12, Sector 16-B, NORTH KARACHI INDUSTRIAL AREA, KARACHI, 75850, ",Apparel,24.9808663,67.0890086
PK,Challenge Apparels Limited,"Rachna Town 2, Satyana Road, Faisalabad, 38000, Punjab",Apparel,31.3928032,73.1173088
PK,Force Five (PVT) Ltd.,"14km Daska Road,, Sialkot, 51310, Punjab",Apparel,32.4682334,74.51459410000001
PK,Kampala Industries (Pvt) Ltd.,"Sade Pur Road, Rahim Pur Khitchian, Sialkot, 51310, Punjab",Apparel,32.4790651,74.4382887
PK,MASOOD TEXTILE MILLS LIMITED APPAREL DIV (GARMENT CITY),"Sahianwala Road, Khurrianwala, Faisalabad, 38000, Punjab",Apparel,31.5037837,73.2713932
PK,PENNA OVERSEAS CORPORATION,"12-KM, SIALKOT-DASKA ROAD, Sialkot, 51310, Punjab",Apparel,32.4682334,74.51459410000001
PK,Umar Garments,"Plot No.1-B/2 Sector-29, Korangi Industrial Area, KARACHI, 74900, Sindh",Apparel,24.8506468,67.1842818
PL,Aneks Polska Sp. z o.o.,"ul. Młynarska 5, Jaworzno, 43-600, Slaskie",Apparel,50.1934055,19.2574665
PL,Euro-pegaz Logistyka Sp. z.o.o.,"Centrum Logistyczne, ul. Loniewska 1, Osieczna, 64-113, Wielkopolskie",Apparel,51.89867169999999,16.6678304
PL,TOMADEX SC,"WARSZAWSKA 69A, ALEKSANDROW LODZKI, 95-070, Lodz",Apparel,51.8283058,19.3120906
PT,"Colep Portugal, SA","Rua Comendador Arlindo Soares Pinho no. 1977, Lordelo Vila Cha., Vale de Cambra, 3730-423, Aveiro",Apparel,40.8498756,-8.4065694
RU,Capella Ltd.,"606000, 5 km. Avtozavodski Shausse, bld. 1, Dzerzhinsk, 606000, ",Apparel,56.2409907,43.4621545
ES,"COTY SPAIN, S.L.U.","Polígono Industrial Congost, Avda. Sant Julià, 168 - 180, Granollers, 8403, Catalunya",Apparel,41.5856428,2.2735033
ES,CTC Externalización S.L.U.,"Carrer Carredada 2, Nau B, Martorelles - Barcelona, 8107, Barcelona",Apparel,41.5331211,2.2354544
ES,"IGEPAK, S.A.","Legarda Kalea No. 2, Usurbil, 20170, Euskal Autonomia Erkidegoa",Apparel,43.2721976,-2.0551082
ES,PREVAL S.A.,"Av. Castell de Barberá 43 - 45, Barbéra del Vallés, 8210, Barcelona",Apparel,41.5235958,2.1447943
LK,CKT Apparel (Pvt) Ltd.,"Yatiyana , Agalawatta, 12200, Western Province",Apparel,6.5422794,80.157504
LK,Hirdaramani Garments Katunayake (pvt) Ltd,"Ring Road 02, Export Processing Zone, Katunayake, Katunayake, 11450, Western",Apparel,7.170921000000001,79.8898816
TW,Chiad Hong Industry Co Ltd,"No.25 Lane 466,  Sec. 9, Xiangshang Rd., Wu-qi Dist., Taichung City, Taichung County, 43547, Taiwan",Apparel,24.2256345,120.5185007
TW,"Chuan Mei Glove Industries Co., Ltd.","No. 4-1 Tung Lin Road, Lin Hai Industrial Estate, Hsiao Kang, Kaohsiung, 81260, Kaohsiung",Apparel,22.6350591,120.3355193
TW,High Cedar Enterprise Co Ltd,"168-6 Hai Pin Road, Ching Shui, Taichung, 43651, Taiwan",Apparel,24.2671289,120.5734819
TW,"Hwa Meei Optical Co., Ltd. 2nd Factory","30, ShaLun, Zhong Sha Vil., AnDing Dist., Tainan, 74555, Taiwan",Apparel,23.090792,120.2334385
TW,Jou Young Industrial Co Ltd,"No 500, Sec 1, Sing Loa Road, Tien Jhong Town, Chang Hua Country, Tienjhong, 52046, ",Apparel,24.0517963,120.5161352
TW,Ming Feng Plastic Co Ltd,"No.2, Lane 292, Dalin Road,, Daya District, Taichung, 42847, Taichung County",Apparel,24.244798,120.6516171
TW,Pang mei sport Co. Ltd.,"No 368, Fudao Rd, Lukang Township, Changhua County, Taichung, 50562, Taichung",Apparel,24.0788009,120.4221362
TW,"Pinda Industry Co., Ltd.","No. 42, Ln. 461, Caofeng Rd, Xianxi Township, Changhua County, Changhua County, 50742, Taiwan",Apparel,24.1331612,120.4530456
TW,Tung-Yu Plastic Co. Ltd,"No. 86 Jen Tzn St, Ta Li Dist, Taichung City, 41275, Taichung County",Apparel,24.1477358,120.6736482
TW,Wei Lee Knitting MFG. Co Ltd,"NO. 100, Hengche Road,, Pei Miao Li,, MiaoLi City,, 36045, Taiwan",Apparel,24.5725742,120.8191939
TH,"Universal Apparel (Thailand) Co., Ltd.","110 Moo 13,  Mitraphab Rd Bantrad,, Udon Thani, Udonthani, 41150, Udon Thani",Apparel,17.3646969,102.8158924
TW,Yichane Co. Ltd.,"178, SEC. 2, Cheng-Si St. Tainan 70956, Taiwan, Tainan, 70956, Taiwan",Apparel,23.057296,120.096771
TH,"Molten (Thailand) Co., Ltd.","666 Moo 11, Sukhaphibarn 8 rd, Nongkham, Sriracha,, Sriracha, 20230, Chon Buri",Apparel,13.0799039,101.0163228
TH,"NB Apparel Co., Ltd.","183 Moo 8, Udonthani-Meunglei rd., Meung, Nongbualamphu, Nong Bua Lam Phu, 39000, Nong Bua Lamphu",Apparel,17.1970957,102.3154514
TH,"Thai Daizo Aerosol Co., Ltd. (TDP)","700/413 Moo1, Tambol Bankao, Amphur Panthong, 20160, Chon Buri",Apparel,13.4585942,101.0460322
GB,VIDHANI BROS LTD,"TERITEX FACTORY, BOUGHTON, NG22 9ZD, NOTTS",Apparel,53.2030263,-0.9774004
US,Dynamax Inc.,"1300 Smith Road, STE 104, Austin, 78721, Texas",Apparel,30.25617,-97.68009699999999
US,JSP Intl. (Pednar),"4335 County Farm Road, Jackson, MI, Michigan, 48854, Michigan",Apparel,42.273089,-84.4800966
VN,"All Wells International Co., Ltd","Street No. 81, Toc Tien Commune, Tan Thanh District, Vung Tau, 79000, Ba Ria-Vung Tau",Apparel,10.6032018,107.113007
VN,Branch of Binh Thuan – Nha Be Garment JSC – Tuy Phong Garment ,"Industrial zone of North of Tuy Phong,, Lac Tri Village, Phu Lac Commune, Binh Thuan, 800000, Binh Thuan",Apparel,11.2671654,108.7007007
VN,"Eins Vina Co., Ltd","7A Thong Nhat Road, Song Than Industrial Zone II, Di An District, Ho Chi Minh City, 84650, Binh Duong",Apparel,10.8970005,106.7463989
VN,"Force Sports Tech Trading & Manufacturing Co., Ltd","Lot B1, Road 6, Long Hau -Hoa Binh Industrial Park, Nhi Thanh Ward, Thu Thua District, Long An , 85000, Long An",Apparel,10.6310514,106.7057733
VN,"GREAT GLOBAL INTERNATIONAL CO., LTD.","C3, 6, GIAN KHAU INDUSTRIAL PARK, GIA TAN COMMUNE, GIA VIEN DIST, GIA VIEN DISTRICT, NINH BINH, 40000, Ninh Binh",Apparel,20.3255974,105.9259271
VN,"Himaru Vietnam Co., Ltd.","Street No 8, Thong Nhat Avenue,, Song Than II Industrial Park, Di An Town, Binh Duong Province, Di An Town, N/A, Binh Duong",Apparel,10.8947296,106.752693
VN,Seyang Vietnam Corporation,"PLOT NO.54-IN SMALL SCALE INDUSTRY COMPLEX,, TRADE VILLAGE, NHAT TAN COMMUNE, Kimbang District, 700635492, Ha Nam",Apparel,20.6126121,105.8906859
VN,Hung Kiu (Vietnam) garment Mfg. Ltd. ,"Road N7, Phu Chanh Industrial Zone 1, Phu Chanh Commune, Tan Uyen Town, Binh Duong Province., Binh Duong, Binh Duong",Apparel,11.0727295,106.7039046
VN,"Kanaan Saigon Co., Ltd (2nd Plant)","Binh Ta 1 Hamlet, Duc Hoa Ha Village, Duc Hoa Town, 850000, Long An",Apparel,10.7905354,106.4759262
VN,"Langham Garment Co.,Ltd","Lot 24 and Lot 21 Road No 6, Trang Bang Industrial Zone, Km 32,, An Tinh ward, Trang Bang District, 840000, Tay Ninh",Apparel,11.0244271,106.3887208
VN,"NYG ( Vietnam) Co.,Ltd","Lot C Long Khanh Industrial Zone – Binh Loc commune, Long Khanh town, 810000, Dong Nai",Apparel,10.9420271,107.2296757
VN,"ORIENTAL GARMENT AN GIANG CO.,LTD","Plot L Binh Hoa Industrial Zone,, Binh Ho  Commune, An Giang Province, Chau Thanh District, 880000, An Giang ",Apparel,10.385899,105.4351466
VN,"Shinwon Ebenezer Hanoi Co., Ltd - Building A","Ad Urban Group Nguyen Gon, Cai Dan Ward, Song Cong City, 250000, Thai Nguyen",Apparel,21.4613691,105.8613233
VN,"Unipax Co.,  Ltd","Plot 101/2 +101/4 road 3, Long Binh IP (Amata), Bien Hoa, Dong Nai, Viet Nam, Long Binh Ward, N/A, Bien Hoa City, 810000, Dong Nai",Apparel,10.9521956,106.8774719
VN,Vinh phuc textile company LTD,"Tien phong _ Me Linh _ Hanoi_ Vietnam, Hanoi, 14017, Thu Do Ha Noi",Apparel,21.1500522,105.7527221
